{"type": "FeatureCollection", "features": [ {"type": "Feature", "properties": {"norad_id": 58654, "name": "BEIDOU-3 M28 (C50)", "group": "beidou", "lat": 51.269269403531545, "lon": 127.32232914837073, "alt_km": 21528.25227430471, "timestamp": "2025-12-09T20:37:09.552540+00:00", "meta": {"OBJECT_NAME": "BEIDOU-3 M28 (C50)", "OBJECT_ID": "2023-207A", "EPOCH": "2025-12-09T05:11:28.664736", "MEAN_MOTION": 1.86229641, "ECCENTRICITY": 0.0002291, "INCLINATION": 55.5815, "RA_OF_ASC_NODE": 68.7207, "ARG_OF_PERICENTER": 268.7348, "MEAN_ANOMALY": 91.2612, "EPHEMERIS_TYPE": 0, "CLASSIFICATION_TYPE": "U", "NORAD_CAT_ID": 58654, "ELEMENT_SET_NO": 999, "REV_AT_EPOCH": 1330, "BSTAR": 0, "MEAN_MOTION_DOT": -4.9e-07, "MEAN_MOTION_DDOT": 0}, "tle": {"line1": "1 58654U 23207A   25343.21630399 -.00000049  00000+0  00000+0 0  9994", "line2": "2 58654  55.5815  68.7207 0002291 268.7348  91.2612  1.86229641 13308"}}, "geometry": {"type": "Point", "coordinates": [127.32232914837073, 51.269269403531545]}}, {"type": "Feature", "properties": {"norad_id": 58655, "name": "BEIDOU-3 M26 (C48)", "group": "beidou", "lat": -21.695572672283205, "lon": -95.49940216526379, "alt_km": 21524.062758033077, "timestamp": "2025-12-09T20:37:09.552551+00:00", "meta": {"OBJECT_NAME": "BEIDOU-3 M26 (C48)", "OBJECT_ID": "2023-207B", "EPOCH": "2025-12-09T13:13:20.106624", "MEAN_MOTION": 1.86231165, "ECCENTRICITY": 0.00036999, "INCLINATION": 55.5839, "RA_OF_ASC_NODE": 68.6957, "ARG_OF_PERICENTER": 254.5617, "MEAN_ANOMALY": 105.42, "EPHEMERIS_TYPE": 0, "CLASSIFICATION_TYPE": "U", "NORAD_CAT_ID": 58655, "ELEMENT_SET_NO": 999, "REV_AT_EPOCH": 1329, "BSTAR": 0, "MEAN_MOTION_DOT": -5.1e-07, "MEAN_MOTION_DDOT": 0}, "tle": {"line1": "1 58655U 23207B   25343.55092716 -.00000051  00000+0  00000+0 0  9990", "line2": "2 58655  55.5839  68.6957 0003699 254.5617 105.4200  1.86231165 13294"}}, "geometry": {"type": "Point", "coordinates": [-95.49940216526379, -21.695572672283205]}}, {"type": "Feature", "properties": {"norad_id": 61186, "name": "BEIDOU-3 M25 (C47)", "group": "beidou", "lat": -28.964237997708565, "lon": -74.32130427092692, "alt_km": 21518.377645559085, "timestamp": "2025-12-09T20:37:09.552562+00:00", "meta": {"OBJECT_NAME": "BEIDOU-3 M25 (C47)", "OBJECT_ID": "2024-168B", "EPOCH": "2025-12-09T12:38:32.089056", "MEAN_MOTION": 1.86229941, "ECCENTRICITY": 0.0005432, "INCLINATION": 54.6447, "RA_OF_ASC_NODE": 308.8306, "ARG_OF_PERICENTER": 296.174, "MEAN_ANOMALY": 164.5169, "EPHEMERIS_TYPE": 0, "CLASSIFICATION_TYPE": "U", "NORAD_CAT_ID": 61186, "ELEMENT_SET_NO": 999, "REV_AT_EPOCH": 825, "BSTAR": 0, "MEAN_MOTION_DOT": -7.8e-07, "MEAN_MOTION_DDOT": 0}, "tle": {"line1": "1 61186U 24168B   25343.52676029 -.00000078  00000+0  00000+0 0  9991", "line2": "2 61186  54.6447 308.8306 0005432 296.1740 164.5169  1.86229941  8254"}}, "geometry": {"type": "Point", "coordinates": [-74.32130427092692, -28.964237997708565]}}, {"type": "Feature", "properties": {"norad_id": 61187, "name": "BEIDOU-3 M27 (C49)", "group": "beidou", "lat": 53.75639587090008, "lon": 53.32101133686322, "alt_km": 21525.548528665997, "timestamp": "2025-12-09T20:37:09.552574+00:00", "meta": {"OBJECT_NAME": "BEIDOU-3 M27 (C49)", "OBJECT_ID": "2024-168C", "EPOCH": "2025-12-09T06:37:59.333088", "MEAN_MOTION": 1.86230065, "ECCENTRICITY": 0.0002332, "INCLINATION": 54.6404, "RA_OF_ASC_NODE": 308.8229, "ARG_OF_PERICENTER": 334.2122, "MEAN_ANOMALY": 93.5537, "EPHEMERIS_TYPE": 0, "CLASSIFICATION_TYPE": "U", "NORAD_CAT_ID": 61187, "ELEMENT_SET_NO": 999, "REV_AT_EPOCH": 572, "BSTAR": 0, "MEAN_MOTION_DOT": -7.6e-07, "MEAN_MOTION_DDOT": 0}, "tle": {"line1": "1 61187U 24168C   25343.27638117 -.00000076  00000+0  00000+0 0  9998", "line2": "2 61187  54.6404 308.8229 0002332 334.2122  93.5537  1.86230065  5724"}}, "geometry": {"type": "Point", "coordinates": [53.32101133686322, 53.75639587090008]}}]}